NORAD_CAT_ID,OBJECT_NAME,OBJECT_TYPE,EPOCH,MEAN_MOTION,ECCENTRICITY,INCLINATION,RA_OF_ASC_NODE,ARG_OF_PERICENTER,MEAN_ANOMALY,BSTAR,MEAN_MOTION_DOT,MEAN_MOTION_DDOT,TLE_LINE0,TLE_LINE1,TLE_LINE2,SEMIMAJOR_AXIS,PERIOD,APOGEE,PERIGEE,DECAYED
52863.0,STARLINK-4270,PAYLOAD,2022-10-01 14:00:01,15.08864987,0.0001991,53.2158,258.4954,50.0867,134.0009,-0.0023788,-0.00037974,0.0,0 STARLINK-4270,1 52863U 22062AK  22274.58334491 -.00037974  00000-0 -23788-2 0  9992,2 52863  53.2158 258.4954 0001991  50.0867 134.0009 15.08864987  1300,6917.804,95.436,541.0459999999998,538.2919999999998,0.0
52863.0,STARLINK-4270,PAYLOAD,2022-10-01 22:00:00,15.08831625,0.0001844,53.2159,256.9979,54.8377,140.8634,0.00025587,3.786e-05,0.0,0 STARLINK-4270,1 52863U 22062AK  22274.91667824  .00003786  00000-0  25587-3 0  9990,2 52863  53.2159 256.9979 0001844  54.8377 140.8634 15.08831625  1308,6917.906,95.438,541.047,538.495,0.0
52863.0,STARLINK-4270,PAYLOAD,2022-10-02 14:00:01,15.08835409,0.0001889999999999,53.2158,254.0063,47.5047,171.3477,-0.0013994,-0.00022488,0.0,0 STARLINK-4270,1 52863U 22062AK  22275.58334491 -.00022488  00000-0 -13994-2 0  9995,2 52863  53.2158 254.0063 0001890  47.5047 171.3477 15.08835409 17095,6917.894,95.438,541.067,538.452,0.0
52863.0,STARLINK-4270,PAYLOAD,2022-10-02 22:00:00,15.08825841,0.000183,53.216,252.509,54.0925,176.3429,0.0025535999999999,0.00040571,0.0,0 STARLINK-4270,1 52863U 22062AK  22275.91667824  .00040571  00000-0  25536-2 0  9997,2 52863  53.2160 252.5090 0001830  54.0925 176.3429 15.08825841  1301,6917.924,95.438,541.055,538.523,0.0
52863.0,STARLINK-4270,PAYLOAD,2022-10-03 06:00:00,15.08846571,0.0002003,53.216,251.0144,48.923,193.1106,0.00077364,0.00012048,0.0,0 STARLINK-4270,1 52863U 22062AK  22276.25001157  .00012048  00000-0  77364-3 0  9991,2 52863  53.2160 251.0144 0002003  48.9230 193.1106 15.08846571 17195,6917.86,95.437,541.111,538.34,0.0
52863.0,STARLINK-4270,PAYLOAD,2022-10-03 14:00:01,15.08873712,0.0001872,53.216,249.5172,47.9214,205.7187,-0.003264,-0.00051909,0.0,0 STARLINK-4270,1 52863U 22062AK  22276.58334491 -.00051909  00000-0 -32640-2 0  9995,2 52863  53.2160 249.5172 0001872  47.9214 205.7187 15.08873712  1304,6917.776999999999,95.435,540.937,538.347,0.0
52863.0,STARLINK-4270,PAYLOAD,2022-10-03 22:00:00,15.08860463,0.0001717,53.2163,248.0198,52.8525,212.4042,-0.00046025,-7.609999999999999e-05,0.0,0 STARLINK-4270,1 52863U 22062AK  22276.91667824 -.00007610  00000-0 -46025-3 0  9994,2 52863  53.2163 248.0198 0001717  52.8525 212.4042 15.08860463  1301,6917.818,95.436,540.871,538.495,0.0
52863.0,STARLINK-4270,PAYLOAD,2022-10-04 06:00:00,15.08852005,0.0001851,53.2162,246.5252,46.1062,230.771,-0.00045846,-7.58e-05,0.0,0 STARLINK-4270,1 52863U 22062AK  22277.25001157 -.00007580  00000-0 -45846-3 0  9999,2 52863  53.2162 246.5252 0001851  46.1062 230.7710 15.08852005 17344,6917.844,95.437,540.989,538.428,0.0
52863.0,STARLINK-4270,PAYLOAD,2022-10-04 14:00:01,15.08862576,0.0001740999999999,53.2162,245.0279,46.2491,242.23,-0.0041597,-0.00065926,0.0,0 STARLINK-4270,1 52863U 22062AK  22277.58334491 -.00065926  00000-0 -41597-2 0  9991,2 52863  53.2162 245.0279 0001741  46.2491 242.2300 15.08862576  1308,6917.811,95.436,540.881,538.472,0.0
52863.0,STARLINK-4270,PAYLOAD,2022-10-04 22:00:00,15.08820783,0.0001681,53.2164,243.5307,53.8049,246.264,0.002435,0.00038658,0.0,0 STARLINK-4270,1 52863U 22062AK  22277.91667824  .00038658  00000-0  24350-2 0  9995,2 52863  53.2164 243.5307 0001681  53.8049 246.2640 15.08820783  1306,6917.939,95.439,540.967,538.641,0.0
52863.0,STARLINK-4270,PAYLOAD,2022-10-05 08:00:01,15.088242499999998,0.0001761,53.2163,241.6622,44.6239,359.93699999999984,-0.0004131999999999,-6.855e-05,0.0,0 STARLINK-4270,1 52863U 22062AK  22278.33334491 -.00006855  00000-0 -41320-3 0  9996,2 52863  53.2163 241.6622 0001761  44.6239 359.9370 15.08824250 17506,6917.929,95.439,541.012,538.575,0.0
52863.0,STARLINK-4270,PAYLOAD,2022-10-05 14:00:01,15.08824927,0.0001603,53.2162,240.5386,45.6405,277.664,-0.0016288,-0.00026106,0.0,0 STARLINK-4270,1 52863U 22062AK  22278.58335648 -.00026106  00000-0 -16288-2 0  9993,2 52863  53.2162 240.5386 0001603  45.6405 277.6640 15.08824927  1309,6917.926,95.439,540.9,538.683,0.0
52863.0,STARLINK-4270,PAYLOAD,2022-10-05 22:00:00,15.08819924,0.0001491,53.2165,239.0431,52.9708,281.8325,0.0020796,0.00032946,0.0,0 STARLINK-4270,1 52863U 22062AK  22278.91667824  .00032946  00000-0  20796-2 0  9990,2 52863  53.2165 239.0431 0001491  52.9708 281.8325 15.08819924  1306,6917.941999999999,95.439,540.8380000000002,538.775,0.0
52863.0,STARLINK-4270,PAYLOAD,2022-10-06 06:00:00,15.08841448,0.0001688,53.2164,237.547,46.4233,299.9711,0.0003928,5.969e-05,0.0,0 STARLINK-4270,1 52863U 22062AK  22279.25001157  .00005969  00000-0  39280-3 0  9993,2 52863  53.2164 237.5470 0001688  46.4233 299.9711 15.08841448 17649,6917.876,95.437,540.909,538.573,0.0
52863.0,STARLINK-4270,PAYLOAD,2022-10-06 14:00:01,15.08853715,0.0001576999999999,53.2161,236.0494,49.8897,308.1052,-0.0021628,-0.00034557,0.0,0 STARLINK-4270,1 52863U 22062AK  22279.58334491 -.00034557  00000-0 -21628-2 0  9992,2 52863  53.2161 236.0494 0001577  49.8897 308.1052 15.08853715  1303,6917.8380000000025,95.437,540.794,538.613,0.0
52863.0,STARLINK-4270,PAYLOAD,2022-10-06 22:42:55,15.08835461,0.0001496999999999,53.2164,234.419,55.6478,115.8543,0.00075913,0.00011813,0.0,0 STARLINK-4270,1 52863U 22062AK  22279.94646991  .00011813  00000-0  75913-3 0  9998,2 52863  53.2164 234.4190 0001497  55.6478 115.8543 15.08835461  1308,6917.894,95.438,540.795,538.724,0.0
52863.0,STARLINK-4270,PAYLOAD,2022-10-07 14:00:01,15.08836742,0.0001693,53.2161,231.5601,56.7862,336.0107,-0.0026750999999999,-0.00042607,0.0,0 STARLINK-4270,1 52863U 22062AK  22280.58334491 -.00042607  00000-0 -26751-2 0  9991,2 52863  53.2161 231.5601 0001693  56.7862 336.0107 15.08836742  1303,6917.89,95.438,540.927,538.5840000000002,0.0
52863.0,STARLINK-4270,PAYLOAD,2022-10-07 22:00:00,15.08825624,0.0001706,53.2162,230.0636,62.214,342.1488,0.0012279,0.000193,0.0,0 STARLINK-4270,1 52863U 22062AK  22280.91667824  .00019300  00000-0  12279-2 0  9999,2 52863  53.2162 230.0636 0001706  62.2140 342.1488 15.08825624  1309,6917.924,95.438,540.97,538.609,0.0
52863.0,STARLINK-4270,PAYLOAD,2022-10-08 06:00:00,15.08826623,0.0001754,53.2162,228.5689,54.4601,1.4947,2.9502e-05,1.81e-06,0.0,0 STARLINK-4270,1 52863U 22062AK  22281.25001157  .00000181  00000-0  29502-4 0  9994,2 52863  53.2162 228.5689 0001754  54.4601   1.4947 15.08826623 17949,6917.920999999999,95.438,541.0,538.573,0.0
52863.0,STARLINK-4270,PAYLOAD,2022-10-08 14:00:01,15.08819368,0.0001548,53.2161,227.0709,57.0112,10.5267,-0.00076079,-0.00012369,0.0,0 STARLINK-4270,1 52863U 22062AK  22281.58334491 -.00012369  00000-0 -76079-3 0  9993,2 52863  53.2161 227.0709 0001548  57.0112  10.5267 15.08819368  1309,6917.943,95.439,540.879,538.738,0.0
52863.0,STARLINK-4270,PAYLOAD,2022-10-08 22:00:00,15.08831795,0.0001516,53.2163,225.5745,59.7677,19.3301,0.0011353,0.00017822,0.0,0 STARLINK-4270,1 52863U 22062AK  22281.91667824  .00017822  00000-0  11353-2 0  9999,2 52863  53.2163 225.5745 0001516  59.7677  19.3301 15.08831795  1308,6917.905,95.438,540.819,538.722,0.0
52863.0,STARLINK-4270,PAYLOAD,2022-10-09 14:00:01,15.0885194,0.0001389,53.2165,222.5818,52.9844,49.3101,-0.0006758999999999,-0.00011032,0.0,0 STARLINK-4270,1 52863U 22062AK  22282.58334491 -.00011032  00000-0 -67590-3 0  9998,2 52863  53.2165 222.5818 0001389  52.9844  49.3101 15.08851940 18142,6917.844,95.437,540.67,538.748,0.0
52863.0,STARLINK-4270,PAYLOAD,2022-10-10 00:00:00,15.08864002,0.0001386999999999,53.2166,220.712,53.2023,153.5963,-0.0034857,-0.00055373,0.0,0 STARLINK-4270,1 52863U 22062AK  22283.00001157 -.00055373  00000-0 -34857-2 0  9991,2 52863  53.2166 220.7120 0001387  53.2023 153.5963 15.08864002  1307,6917.807,95.436,540.632,538.7130000000002,0.0
52863.0,STARLINK-4270,PAYLOAD,2022-10-10 14:00:01,15.08807638,0.0001482,53.2172,218.0973,54.8484,82.2353,0.00045104,6.891e-05,0.0,0 STARLINK-4270,1 52863U 22062AK  22283.58334491  .00006891  00000-0  45104-3 0  9991,2 52863  53.2172 218.0973 0001482  54.8484  82.2353 15.08807638  1307,6917.979,95.44,540.87,538.819,0.0
52863.0,STARLINK-4270,PAYLOAD,2022-10-10 16:00:00,15.08834316,0.0001386999999999,53.2171,217.7235,50.377,179.6224,-0.0048616,-0.00076823,0.0,0 STARLINK-4270,1 52863U 22062AK  22283.66667824 -.00076823  00000-0 -48616-2 0  9993,2 52863  53.2171 217.7235 0001387  50.3770 179.6224 15.08834316 18316,6917.898,95.438,540.722,538.803,0.0
52863.0,STARLINK-4270,PAYLOAD,2022-10-10 22:00:01,15.08762918,0.0001459,53.2173,216.6037,49.3632,99.3727,0.0071426999999999,0.00115006,0.0,0 STARLINK-4270,1 52863U 22062AK  22283.91668981  .00115006  00000-0  71427-2 0  9997,2 52863  53.2173 216.6037 0001459  49.3632  99.3727 15.08762918  1306,6918.116,95.442,540.99,538.972,0.0
52863.0,STARLINK-4270,PAYLOAD,2022-10-11 06:00:00,15.08780756,0.0001725,53.217,215.1033,54.854,105.3979,0.0024799,0.00039336,0.0,0 STARLINK-4270,1 52863U 22062AK  22284.25001157  .00039336  00000-0  24799-2 0  9992,2 52863  53.2170 215.1033 0001725  54.8540 105.3979 15.08780756 18404,6918.061,95.441,541.12,538.7330000000002,0.0
52863.0,STARLINK-4270,PAYLOAD,2022-10-11 14:00:01,15.08833364,0.000144,53.2177,213.6117,57.1935,114.6267,0.00036446,5.516e-05,0.0,0 STARLINK-4270,1 52863U 22062AK  22284.58334491  .00005516  00000-0  36446-3 0  9994,2 52863  53.2177 213.6117 0001440  57.1935 114.6267 15.08833364 18457,6917.901,95.438,540.762,538.769,0.0
52863.0,STARLINK-4270,PAYLOAD,2022-10-11 22:00:00,15.08836816,0.0001416999999999,53.2176,212.117,58.1958,125.2141,-1.7604e-05,-5.68e-06,0.0,0 STARLINK-4270,1 52863U 22062AK  22284.91667824 -.00000568  00000-0 -17604-4 0  9990,2 52863  53.2176 212.1170 0001417  58.1958 125.2141 15.08836816  1309,6917.89,95.438,540.735,538.775,0.0
